[{"OBJECT_NAME":"KUIPER-00120","OBJECT_ID":"2025-217A","EPOCH":"2026-03-09T09:39:14.260896","MEAN_MOTION":14.79937882,"ECCENTRICITY":7.237e-5,"INCLINATION":51.8993,"RA_OF_ASC_NODE":54.339,"ARG_OF_PERICENTER":91.7416,"MEAN_ANOMALY":268.363,"EPHEMERIS_TYPE":0,"CLASSIFICATION_TYPE":"U","NORAD_CAT_ID":65762,"ELEMENT_SET_NO":999,"REV_AT_EPOCH":2469,"BSTAR":0.00067951677,"MEAN_MOTION_DOT":4.963e-5,"MEAN_MOTION_DDOT":0},{"OBJECT_NAME":"SL-14 R\/B","OBJECT_ID":"1983-061B","EPOCH":"2026-03-09T18:04:19.471296","MEAN_MOTION":14.85668739,"ECCENTRICITY":0.00192564,"INCLINATION":82.5212,"RA_OF_ASC_NODE":161.2727,"ARG_OF_PERICENTER":255.7686,"MEAN_ANOMALY":104.1392,"EPHEMERIS_TYPE":0,"CLASSIFICATION_TYPE":"U","NORAD_CAT_ID":14148,"ELEMENT_SET_NO":999,"REV_AT_EPOCH":28640,"BSTAR":7.0594723e-5,"MEAN_MOTION_DOT":6.37e-6,"MEAN_MOTION_DDOT":0}]
